{"type": "FeatureCollection", "features": [ {"type": "Feature", "properties": {"norad_id": 33492, "name": "GOSAT (IBUKI)", "group": "resource", "lat": 81.05288884084865, "lon": -7.858197239822305, "alt_km": 660.7558533319907, "timestamp": "2025-12-25T07:00:33.699298+00:00", "meta": {"OBJECT_NAME": "GOSAT (IBUKI)", "OBJECT_ID": "2009-002A", "EPOCH": "2025-12-24T20:45:54.808416", "MEAN_MOTION": 14.6754785, "ECCENTRICITY": 0.00010267, "INCLINATION": 98.0771, "RA_OF_ASC_NODE": 107.3001, "ARG_OF_PERICENTER": 104.8955, "MEAN_ANOMALY": 255.2363, "EPHEMERIS_TYPE": 0, "CLASSIFICATION_TYPE": "U", "NORAD_CAT_ID": 33492, "ELEMENT_SET_NO": 999, "REV_AT_EPOCH": 90589, "BSTAR": 0.00016267685, "MEAN_MOTION_DOT": 8.75e-06, "MEAN_MOTION_DDOT": 0}, "tle": {"line1": "1 33492U 09002A   25358.86521769  .00000875  00000+0  16268-3 0  9994", "line2": "2 33492  98.0771 107.3001 0001026 104.8955 255.2363 14.67547850905892"}}, "geometry": {"type": "Point", "coordinates": [-7.858197239822305, 81.05288884084865]}}, {"type": "Feature", "properties": {"norad_id": 35681, "name": "DEIMOS-1", "group": "resource", "lat": 33.50534273566668, "lon": -15.539089548496055, "alt_km": 643.0701388236403, "timestamp": "2025-12-25T07:00:33.699310+00:00", "meta": {"OBJECT_NAME": "DEIMOS-1", "OBJECT_ID": "2009-041A", "EPOCH": "2025-12-24T23:50:13.325856", "MEAN_MOTION": 14.74969994, "ECCENTRICITY": 0.00024717, "INCLINATION": 97.7156, "RA_OF_ASC_NODE": 159.0267, "ARG_OF_PERICENTER": 60.6986, "MEAN_ANOMALY": 299.447, "EPHEMERIS_TYPE": 0, "CLASSIFICATION_TYPE": "U", "NORAD_CAT_ID": 35681, "ELEMENT_SET_NO": 999, "REV_AT_EPOCH": 88120, "BSTAR": 9.4421262e-05, "MEAN_MOTION_DOT": 5.87e-06, "MEAN_MOTION_DDOT": 0}, "tle": {"line1": "1 35681U 09041A   25358.99320979  .00000587  00000+0  94421-4 0  9991", "line2": "2 35681  97.7156 159.0267 0002471  60.6986 299.4470 14.74969994881205"}}, "geometry": {"type": "Point", "coordinates": [-15.539089548496055, 33.50534273566668]}}, {"type": "Feature", "properties": {"norad_id": 35682, "name": "DUBAISAT-1", "group": "resource", "lat": 64.57403974032731, "lon": 112.62550956671112, "alt_km": 645.9705556112158, "timestamp": "2025-12-25T07:00:33.699322+00:00", "meta": {"OBJECT_NAME": "DUBAISAT-1", "OBJECT_ID": "2009-041B", "EPOCH": "2025-12-24T20:56:26.971296", "MEAN_MOTION": 14.74636439, "ECCENTRICITY": 0.00092735, "INCLINATION": 97.9798, "RA_OF_ASC_NODE": 129.3742, "ARG_OF_PERICENTER": 270.8302, "MEAN_ANOMALY": 89.1844, "EPHEMERIS_TYPE": 0, "CLASSIFICATION_TYPE": "U", "NORAD_CAT_ID": 35682, "ELEMENT_SET_NO": 999, "REV_AT_EPOCH": 87940, "BSTAR": 0.00020991204, "MEAN_MOTION_DOT": 1.35e-05, "MEAN_MOTION_DDOT": 0}, "tle": {"line1": "1 35682U 09041B   25358.87253439  .00001350  00000+0  20991-3 0  9994", "line2": "2 35682  97.9798 129.3742 0009273 270.8302  89.1844 14.74636439879405"}}, "geometry": {"type": "Point", "coordinates": [112.62550956671112, 64.57403974032731]}}, {"type": "Feature", "properties": {"norad_id": 35931, "name": "OCEANSAT-2", "group": "resource", "lat": 77.56843274761938, "lon": -140.39557588567573, "alt_km": 887.2626503772408, "timestamp": "2025-12-25T07:00:33.699333+00:00", "meta": {"OBJECT_NAME": "OCEANSAT-2", "OBJECT_ID": "2009-051A", "EPOCH": "2025-12-24T23:40:28.998336", "MEAN_MOTION": 13.99622921, "ECCENTRICITY": 0.00158975, "INCLINATION": 98.2218, "RA_OF_ASC_NODE": 358.3443, "ARG_OF_PERICENTER": 12.8392, "MEAN_ANOMALY": 347.3177, "EPHEMERIS_TYPE": 0, "CLASSIFICATION_TYPE": "U", "NORAD_CAT_ID": 35931, "ELEMENT_SET_NO": 999, "REV_AT_EPOCH": 85496, "BSTAR": 9.155948e-06, "MEAN_MOTION_DOT": -2.4e-07, "MEAN_MOTION_DDOT": 0}, "tle": {"line1": "1 35931U 09051A   25358.98644674 -.00000024  00000+0  91559-5 0  9997", "line2": "2 35931  98.2218 358.3443 0015897  12.8392 347.3177 13.99622921854966"}}, "geometry": {"type": "Point", "coordinates": [-140.39557588567573, 77.56843274761938]}}, {"type": "Feature", "properties": {"norad_id": 35946, "name": "WORLDVIEW-2 (WV-2)", "group": "resource", "lat": 39.127867043042784, "lon": -102.82736405358759, "alt_km": 763.6391280460475, "timestamp": "2025-12-25T07:00:33.699356+00:00", "meta": {"OBJECT_NAME": "WORLDVIEW-2 (WV-2)", "OBJECT_ID": "2009-055A", "EPOCH": "2025-12-24T22:00:29.574144", "MEAN_MOTION": 14.37729283, "ECCENTRICITY": 0.00047241, "INCLINATION": 98.4772, "RA_OF_ASC_NODE": 69.8343, "ARG_OF_PERICENTER": 40.6208, "MEAN_ANOMALY": 319.5331, "EPHEMERIS_TYPE": 0, "CLASSIFICATION_TYPE": "U", "NORAD_CAT_ID": 35946, "ELEMENT_SET_NO": 999, "REV_AT_EPOCH": 85060, "BSTAR": 7.3691526e-05, "MEAN_MOTION_DOT": 1.78e-06, "MEAN_MOTION_DDOT": 0}, "tle": {"line1": "1 35946U 09055A   25358.91700896  .00000178  00000+0  73692-4 0  9995", "line2": "2 35946  98.4772  69.8343 0004724  40.6208 319.5331 14.37729283850606"}}, "geometry": {"type": "Point", "coordinates": [-102.82736405358759, 39.127867043042784]}}, {"type": "Feature", "properties": {"norad_id": 36036, "name": "SMOS", "group": "resource", "lat": -80.97840512784258, "lon": -65.06578300773505, "alt_km": 767.4021357320962, "timestamp": "2025-12-25T07:00:33.699366+00:00", "meta": {"OBJECT_NAME": "SMOS", "OBJECT_ID": "2009-059A", "EPOCH": "2025-12-24T18:05:54.245184", "MEAN_MOTION": 14.39751659, "ECCENTRICITY": 0.00010502, "INCLINATION": 98.4381, "RA_OF_ASC_NODE": 183.6247, "ARG_OF_PERICENTER": 83.5251, "MEAN_ANOMALY": 276.6057, "EPHEMERIS_TYPE": 0, "CLASSIFICATION_TYPE": "U", "NORAD_CAT_ID": 36036, "ELEMENT_SET_NO": 999, "REV_AT_EPOCH": 84835, "BSTAR": 0.00013650047, "MEAN_MOTION_DOT": 3.84e-06, "MEAN_MOTION_DDOT": 0}, "tle": {"line1": "1 36036U 09059A   25358.75410006  .00000384  00000+0  13650-3 0  9999", "line2": "2 36036  98.4381 183.6247 0001050  83.5251 276.6057 14.39751659848355"}}, "geometry": {"type": "Point", "coordinates": [-65.06578300773505, -80.97840512784258]}}, {"type": "Feature", "properties": {"norad_id": 36110, "name": "YAOGAN-7", "group": "resource", "lat": 5.904159689983804, "lon": -119.83266324478744, "alt_km": 648.6425693157307, "timestamp": "2025-12-25T07:00:33.699377+00:00", "meta": {"OBJECT_NAME": "YAOGAN-7", "OBJECT_ID": "2009-069A", "EPOCH": "2025-12-24T22:51:25.180128", "MEAN_MOTION": 14.77749725, "ECCENTRICITY": 0.00234505, "INCLINATION": 98.0294, "RA_OF_ASC_NODE": 240.6654, "ARG_OF_PERICENTER": 239.6546, "MEAN_ANOMALY": 120.2345, "EPHEMERIS_TYPE": 0, "CLASSIFICATION_TYPE": "U", "NORAD_CAT_ID": 36110, "ELEMENT_SET_NO": 999, "REV_AT_EPOCH": 86389, "BSTAR": 0.00010028525, "MEAN_MOTION_DOT": 6.69e-06, "MEAN_MOTION_DDOT": 0}, "tle": {"line1": "1 36110U 09069A   25358.95237477  .00000669  00000+0  10029-3 0  9997", "line2": "2 36110  98.0294 240.6654 0023450 239.6546 120.2345 14.77749725863895"}}, "geometry": {"type": "Point", "coordinates": [-119.83266324478744, 5.904159689983804]}}, {"type": "Feature", "properties": {"norad_id": 36605, "name": "TANDEM-X", "group": "resource", "lat": -40.21172374389251, "lon": 10.836350549082873, "alt_km": 515.815417202919, "timestamp": "2025-12-25T07:00:33.699388+00:00", "meta": {"OBJECT_NAME": "TANDEM-X", "OBJECT_ID": "2010-030A", "EPOCH": "2025-12-24T13:47:55.228992", "MEAN_MOTION": 15.19151393, "ECCENTRICITY": 0.00017737, "INCLINATION": 97.4454, "RA_OF_ASC_NODE": 3.7821, "ARG_OF_PERICENTER": 94.5594, "MEAN_ANOMALY": 265.5843, "EPHEMERIS_TYPE": 0, "CLASSIFICATION_TYPE": "U", "NORAD_CAT_ID": 36605, "ELEMENT_SET_NO": 999, "REV_AT_EPOCH": 86013, "BSTAR": 4.5827e-05, "MEAN_MOTION_DOT": 8.95e-06, "MEAN_MOTION_DDOT": 0}, "tle": {"line1": "1 36605U 10030A   25358.57494478  .00000895  00000+0  45827-4 0  9996", "line2": "2 36605  97.4454   3.7821 0001773  94.5594 265.5843 15.19151393860139"}}, "geometry": {"type": "Point", "coordinates": [10.836350549082873, -40.21172374389251]}}, {"type": "Feature", "properties": {"norad_id": 36795, "name": "CARTOSAT-2B", "group": "resource", "lat": -22.23697917782264, "lon": 51.1185395811367, "alt_km": 634.5236230208893, "timestamp": "2025-12-25T07:00:33.699398+00:00", "meta": {"OBJECT_NAME": "CARTOSAT-2B", "OBJECT_ID": "2010-035A", "EPOCH": "2025-12-24T22:59:26.033280", "MEAN_MOTION": 14.78741102, "ECCENTRICITY": 0.00125699, "INCLINATION": 97.7832, "RA_OF_ASC_NODE": 47.5897, "ARG_OF_PERICENTER": 40.4874, "MEAN_ANOMALY": 319.7271, "EPHEMERIS_TYPE": 0, "CLASSIFICATION_TYPE": "U", "NORAD_CAT_ID": 36795, "ELEMENT_SET_NO": 999, "REV_AT_EPOCH": 83410, "BSTAR": 8.0122023e-05, "MEAN_MOTION_DOT": 5.39e-06, "MEAN_MOTION_DDOT": 0}, "tle": {"line1": "1 36795U 10035A   25358.95794020  .00000539  00000+0  80122-4 0  9991", "line2": "2 36795  97.7832  47.5897 0012569  40.4874 319.7271 14.78741102834109"}}, "geometry": {"type": "Point", "coordinates": [51.1185395811367, -22.23697917782264]}}, {"type": "Feature", "properties": {"norad_id": 36834, "name": "YAOGAN-10", "group": "resource", "lat": -35.515634888196836, "lon": 24.715319940599223, "alt_km": 621.4087375763866, "timestamp": "2025-12-25T07:00:33.699409+00:00", "meta": {"OBJECT_NAME": "YAOGAN-10", "OBJECT_ID": "2010-038A", "EPOCH": "2025-12-24T23:28:25.790592", "MEAN_MOTION": 14.84655604, "ECCENTRICITY": 0.0001435, "INCLINATION": 97.9132, "RA_OF_ASC_NODE": 18.7066, "ARG_OF_PERICENTER": 80.8732, "MEAN_ANOMALY": 6.2104, "EPHEMERIS_TYPE": 0, "CLASSIFICATION_TYPE": "U", "NORAD_CAT_ID": 36834, "ELEMENT_SET_NO": 999, "REV_AT_EPOCH": 83135, "BSTAR": 0.00039403796, "MEAN_MOTION_DOT": 3.279e-05, "MEAN_MOTION_DDOT": 0}, "tle": {"line1": "1 36834U 10038A   25358.97807628  .00003279  00000+0  39404-3 0  9999", "line2": "2 36834  97.9132  18.7066 0001435  80.8732   6.2104 14.84655604831352"}}, "geometry": {"type": "Point", "coordinates": [24.715319940599223, -35.515634888196836]}}]}